{"type": "FeatureCollection", "features": [ {"type": "Feature", "properties": {"norad_id": 33492, "name": "GOSAT (IBUKI)", "group": "resource", "lat": -52.51454304361851, "lon": 119.03668459014794, "alt_km": 676.546785205589, "timestamp": "2025-12-25T22:42:16.653097+00:00", "meta": {"OBJECT_NAME": "GOSAT (IBUKI)", "OBJECT_ID": "2009-002A", "EPOCH": "2025-12-25T18:02:16.478304", "MEAN_MOTION": 14.67549806, "ECCENTRICITY": 0.0001031, "INCLINATION": 98.0771, "RA_OF_ASC_NODE": 108.1742, "ARG_OF_PERICENTER": 105.3447, "MEAN_ANOMALY": 254.7872, "EPHEMERIS_TYPE": 0, "CLASSIFICATION_TYPE": "U", "NORAD_CAT_ID": 33492, "ELEMENT_SET_NO": 999, "REV_AT_EPOCH": 90602, "BSTAR": 0.00017203, "MEAN_MOTION_DOT": 9.28e-06, "MEAN_MOTION_DDOT": 0}, "tle": {"line1": "1 33492U 09002A   25359.75157961  .00000928  00000+0  17203-3 0  9991", "line2": "2 33492  98.0771 108.1742 0001031 105.3447 254.7872 14.67549806906029"}}, "geometry": {"type": "Point", "coordinates": [119.03668459014794, -52.51454304361851]}}, {"type": "Feature", "properties": {"norad_id": 35681, "name": "DEIMOS-1", "group": "resource", "lat": 16.134335879957035, "lon": 157.68751284750752, "alt_km": 644.6835989875099, "timestamp": "2025-12-25T22:42:16.653108+00:00", "meta": {"OBJECT_NAME": "DEIMOS-1", "OBJECT_ID": "2009-041A", "EPOCH": "2025-12-25T17:44:47.772384", "MEAN_MOTION": 14.74970704, "ECCENTRICITY": 0.0002446, "INCLINATION": 97.7157, "RA_OF_ASC_NODE": 159.7383, "ARG_OF_PERICENTER": 59.9451, "MEAN_ANOMALY": 300.2001, "EPHEMERIS_TYPE": 0, "CLASSIFICATION_TYPE": "U", "NORAD_CAT_ID": 35681, "ELEMENT_SET_NO": 999, "REV_AT_EPOCH": 88131, "BSTAR": 8.1888e-05, "MEAN_MOTION_DOT": 5.03e-06, "MEAN_MOTION_DDOT": 0}, "tle": {"line1": "1 35681U 09041A   25359.73944181  .00000503  00000+0  81888-4 0  9992", "line2": "2 35681  97.7157 159.7383 0002446  59.9451 300.2001 14.74970704881316"}}, "geometry": {"type": "Point", "coordinates": [157.68751284750752, 16.134335879957035]}}, {"type": "Feature", "properties": {"norad_id": 35682, "name": "DUBAISAT-1", "group": "resource", "lat": -63.45029985011776, "lon": 146.73621146216007, "alt_km": 647.7764116451108, "timestamp": "2025-12-25T22:42:16.653119+00:00", "meta": {"OBJECT_NAME": "DUBAISAT-1", "OBJECT_ID": "2009-041B", "EPOCH": "2025-12-25T14:51:15.709248", "MEAN_MOTION": 14.7463875, "ECCENTRICITY": 0.0009257, "INCLINATION": 97.9798, "RA_OF_ASC_NODE": 130.1097, "ARG_OF_PERICENTER": 268.0894, "MEAN_ANOMALY": 91.9254, "EPHEMERIS_TYPE": 0, "CLASSIFICATION_TYPE": "U", "NORAD_CAT_ID": 35682, "ELEMENT_SET_NO": 999, "REV_AT_EPOCH": 87951, "BSTAR": 0.00021668, "MEAN_MOTION_DOT": 1.396e-05, "MEAN_MOTION_DDOT": 0}, "tle": {"line1": "1 35682U 09041B   25359.61893182  .00001396  00000+0  21668-3 0  9994", "line2": "2 35682  97.9798 130.1097 0009257 268.0894  91.9254 14.74638750879511"}}, "geometry": {"type": "Point", "coordinates": [146.73621146216007, -63.45029985011776]}}, {"type": "Feature", "properties": {"norad_id": 35931, "name": "OCEANSAT-2", "group": "resource", "lat": 27.061421414835138, "lon": -176.5575732619407, "alt_km": 903.1025231043404, "timestamp": "2025-12-25T22:42:16.653129+00:00", "meta": {"OBJECT_NAME": "OCEANSAT-2", "OBJECT_ID": "2009-051A", "EPOCH": "2025-12-25T18:32:50.981856", "MEAN_MOTION": 13.99622952, "ECCENTRICITY": 0.0015883, "INCLINATION": 98.2218, "RA_OF_ASC_NODE": 359.0509, "ARG_OF_PERICENTER": 10.775, "MEAN_ANOMALY": 349.3753, "EPHEMERIS_TYPE": 0, "CLASSIFICATION_TYPE": "U", "NORAD_CAT_ID": 35931, "ELEMENT_SET_NO": 999, "REV_AT_EPOCH": 85507, "BSTAR": 2.606e-05, "MEAN_MOTION_DOT": 1e-08, "MEAN_MOTION_DDOT": 0}, "tle": {"line1": "1 35931U 09051A   25359.77281229  .00000001  00000+0  26060-4 0  9996", "line2": "2 35931  98.2218 359.0509 0015883  10.7750 349.3753 13.99622952855076"}}, "geometry": {"type": "Point", "coordinates": [-176.5575732619407, 27.061421414835138]}}, {"type": "Feature", "properties": {"norad_id": 35946, "name": "WORLDVIEW-2 (WV-2)", "group": "resource", "lat": -74.50200597801286, "lon": 103.38697709513261, "alt_km": 774.7134261041292, "timestamp": "2025-12-25T22:42:16.653140+00:00", "meta": {"OBJECT_NAME": "WORLDVIEW-2 (WV-2)", "OBJECT_ID": "2009-055A", "EPOCH": "2025-12-25T18:03:04.855392", "MEAN_MOTION": 14.37729707, "ECCENTRICITY": 0.0004683, "INCLINATION": 98.4772, "RA_OF_ASC_NODE": 70.6579, "ARG_OF_PERICENTER": 38.4466, "MEAN_ANOMALY": 321.7054, "EPHEMERIS_TYPE": 0, "CLASSIFICATION_TYPE": "U", "NORAD_CAT_ID": 35946, "ELEMENT_SET_NO": 999, "REV_AT_EPOCH": 85072, "BSTAR": 7.3593e-05, "MEAN_MOTION_DOT": 1.78e-06, "MEAN_MOTION_DDOT": 0}, "tle": {"line1": "1 35946U 09055A   25359.75213953  .00000178  00000+0  73593-4 0  9991", "line2": "2 35946  98.4772  70.6579 0004683  38.4466 321.7054 14.37729707850723"}}, "geometry": {"type": "Point", "coordinates": [103.38697709513261, -74.50200597801286]}}, {"type": "Feature", "properties": {"norad_id": 36036, "name": "SMOS", "group": "resource", "lat": 53.512165340174114, "lon": 173.22082707235643, "alt_km": 753.5978154271652, "timestamp": "2025-12-25T22:42:16.653150+00:00", "meta": {"OBJECT_NAME": "SMOS", "OBJECT_ID": "2009-059A", "EPOCH": "2025-12-25T12:26:43.814688", "MEAN_MOTION": 14.39752409, "ECCENTRICITY": 0.0001048, "INCLINATION": 98.4382, "RA_OF_ASC_NODE": 184.3778, "ARG_OF_PERICENTER": 83.5016, "MEAN_ANOMALY": 276.6292, "EPHEMERIS_TYPE": 0, "CLASSIFICATION_TYPE": "U", "NORAD_CAT_ID": 36036, "ELEMENT_SET_NO": 999, "REV_AT_EPOCH": 84846, "BSTAR": 0.00014069, "MEAN_MOTION_DOT": 3.97e-06, "MEAN_MOTION_DDOT": 0}, "tle": {"line1": "1 36036U 09059A   25359.51856267  .00000397  00000+0  14069-3 0  9996", "line2": "2 36036  98.4382 184.3778 0001048  83.5016 276.6292 14.39752409848466"}}, "geometry": {"type": "Point", "coordinates": [173.22082707235643, 53.512165340174114]}}, {"type": "Feature", "properties": {"norad_id": 36110, "name": "YAOGAN-7", "group": "resource", "lat": -61.82652938677929, "lon": 46.37449122770338, "alt_km": 627.244669355212, "timestamp": "2025-12-25T22:42:16.653160+00:00", "meta": {"OBJECT_NAME": "YAOGAN-7", "OBJECT_ID": "2009-069A", "EPOCH": "2025-12-25T15:06:27.948096", "MEAN_MOTION": 14.77750828, "ECCENTRICITY": 0.0023473, "INCLINATION": 98.0293, "RA_OF_ASC_NODE": 241.34, "ARG_OF_PERICENTER": 237.3652, "MEAN_ANOMALY": 122.5293, "EPHEMERIS_TYPE": 0, "CLASSIFICATION_TYPE": "U", "NORAD_CAT_ID": 36110, "ELEMENT_SET_NO": 999, "REV_AT_EPOCH": 86399, "BSTAR": 0.00010215, "MEAN_MOTION_DOT": 6.82e-06, "MEAN_MOTION_DDOT": 0}, "tle": {"line1": "1 36110U 09069A   25359.62949014  .00000682  00000+0  10215-3 0  9991", "line2": "2 36110  98.0293 241.3400 0023473 237.3652 122.5293 14.77750828863993"}}, "geometry": {"type": "Point", "coordinates": [46.37449122770338, -61.82652938677929]}}, {"type": "Feature", "properties": {"norad_id": 36605, "name": "TANDEM-X", "group": "resource", "lat": -65.24010167047332, "lon": 21.60495671315471, "alt_km": 516.779397431621, "timestamp": "2025-12-25T22:42:16.653171+00:00", "meta": {"OBJECT_NAME": "TANDEM-X", "OBJECT_ID": "2010-030A", "EPOCH": "2025-12-25T13:30:40.340160", "MEAN_MOTION": 15.19154497, "ECCENTRICITY": 0.0001775, "INCLINATION": 97.4454, "RA_OF_ASC_NODE": 4.7557, "ARG_OF_PERICENTER": 93.2666, "MEAN_ANOMALY": 266.8771, "EPHEMERIS_TYPE": 0, "CLASSIFICATION_TYPE": "U", "NORAD_CAT_ID": 36605, "ELEMENT_SET_NO": 999, "REV_AT_EPOCH": 86028, "BSTAR": 5.683e-05, "MEAN_MOTION_DOT": 1.127e-05, "MEAN_MOTION_DDOT": 0}, "tle": {"line1": "1 36605U 10030A   25359.56296690  .00001127  00000+0  56830-4 0  9997", "line2": "2 36605  97.4454   4.7557 0001775  93.2666 266.8771 15.19154497860282"}}, "geometry": {"type": "Point", "coordinates": [21.60495671315471, -65.24010167047332]}}, {"type": "Feature", "properties": {"norad_id": 36795, "name": "CARTOSAT-2B", "group": "resource", "lat": -36.765175713161, "lon": -137.31979147481536, "alt_km": 648.4616733388584, "timestamp": "2025-12-25T22:42:16.653181+00:00", "meta": {"OBJECT_NAME": "CARTOSAT-2B", "OBJECT_ID": "2010-035A", "EPOCH": "2025-12-25T16:51:15.922368", "MEAN_MOTION": 14.78744235, "ECCENTRICITY": 0.0012539, "INCLINATION": 97.783, "RA_OF_ASC_NODE": 48.3097, "ARG_OF_PERICENTER": 38.2002, "MEAN_ANOMALY": 322.0095, "EPHEMERIS_TYPE": 0, "CLASSIFICATION_TYPE": "U", "NORAD_CAT_ID": 36795, "ELEMENT_SET_NO": 999, "REV_AT_EPOCH": 83421, "BSTAR": 0.00014802, "MEAN_MOTION_DOT": 1.038e-05, "MEAN_MOTION_DDOT": 0}, "tle": {"line1": "1 36795U 10035A   25359.70226762  .00001038  00000+0  14802-3 0  9994", "line2": "2 36795  97.7830  48.3097 0012539  38.2002 322.0095 14.78744235834216"}}, "geometry": {"type": "Point", "coordinates": [-137.31979147481536, -36.765175713161]}}, {"type": "Feature", "properties": {"norad_id": 36834, "name": "YAOGAN-10", "group": "resource", "lat": -37.07226624982353, "lon": -166.36501595123778, "alt_km": 621.7971956276378, "timestamp": "2025-12-25T22:42:16.653192+00:00", "meta": {"OBJECT_NAME": "YAOGAN-10", "OBJECT_ID": "2010-038A", "EPOCH": "2025-12-25T18:58:53.963040", "MEAN_MOTION": 14.84655606, "ECCENTRICITY": 0.0001407, "INCLINATION": 97.9133, "RA_OF_ASC_NODE": 19.5133, "ARG_OF_PERICENTER": 79.5573, "MEAN_ANOMALY": 29.2272, "EPHEMERIS_TYPE": 0, "CLASSIFICATION_TYPE": "U", "NORAD_CAT_ID": 36834, "ELEMENT_SET_NO": 999, "REV_AT_EPOCH": 83147, "BSTAR": 0.00017789, "MEAN_MOTION_DOT": 1.451e-05, "MEAN_MOTION_DDOT": 0}, "tle": {"line1": "1 36834U 10038A   25359.79090235  .00001451  00000+0  17789-3 0  9990", "line2": "2 36834  97.9133  19.5133 0001407  79.5573  29.2272 14.84655606831470"}}, "geometry": {"type": "Point", "coordinates": [-166.36501595123778, -37.07226624982353]}}]}